[{"OBJECT_NAME":"STARLINK-34732","OBJECT_ID":"2025-158Z","EPOCH":"2026-03-19T04:07:25.135680","MEAN_MOTION":15.05655239,"ECCENTRICITY":0.00018165,"INCLINATION":97.6021,"RA_OF_ASC_NODE":303.4493,"ARG_OF_PERICENTER":79.3072,"MEAN_ANOMALY":280.8359,"EPHEMERIS_TYPE":0,"CLASSIFICATION_TYPE":"U","NORAD_CAT_ID":64955,"ELEMENT_SET_NO":999,"REV_AT_EPOCH":3678,"BSTAR":0.00038621496,"MEAN_MOTION_DOT":5.517e-5,"MEAN_MOTION_DDOT":0},{"OBJECT_NAME":"STARLINK-34617","OBJECT_ID":"2025-161A","EPOCH":"2026-03-19T04:59:18.975264","MEAN_MOTION":15.30220537,"ECCENTRICITY":1.944e-5,"INCLINATION":53.1597,"RA_OF_ASC_NODE":250.2399,"ARG_OF_PERICENTER":264.7289,"MEAN_ANOMALY":95.3689,"EPHEMERIS_TYPE":0,"CLASSIFICATION_TYPE":"U","NORAD_CAT_ID":65015,"ELEMENT_SET_NO":999,"REV_AT_EPOCH":3568,"BSTAR":0.00075236413,"MEAN_MOTION_DOT":0.00022004,"MEAN_MOTION_DDOT":0},{"OBJECT_NAME":"STARLINK-34627","OBJECT_ID":"2025-161B","EPOCH":"2026-03-18T16:04:05.753856","MEAN_MOTION":15.30219733,"ECCENTRICITY":3.694e-5,"INCLINATION":53.1568,"RA_OF_ASC_NODE":252.5658,"ARG_OF_PERICENTER":233.6848,"MEAN_ANOMALY":126.4119,"EPHEMERIS_TYPE":0,"CLASSIFICATION_TYPE":"U","NORAD_CAT_ID":65016,"ELEMENT_SET_NO":999,"REV_AT_EPOCH":3681,"BSTAR":0.0007304665,"MEAN_MOTION_DOT":0.00021351,"MEAN_MOTION_DDOT":0},{"OBJECT_NAME":"STARLINK-34549","OBJECT_ID":"2025-161C","EPOCH":"2026-03-18T21:25:36.452064","MEAN_MOTION":15.30228974,"ECCENTRICITY":7.966e-5,"INCLINATION":53.1604,"RA_OF_ASC_NODE":251.1148,"ARG_OF_PERICENTER":51.8739,"MEAN_ANOMALY":308.2334,"EPHEMERIS_TYPE":0,"CLASSIFICATION_TYPE":"U","NORAD_CAT_ID":65017,"ELEMENT_SET_NO":999,"REV_AT_EPOCH":3685,"BSTAR":0.0011437924,"MEAN_MOTION_DOT":0.00033701,"MEAN_MOTION_DDOT":0},{"OBJECT_NAME":"STARLINK-34623","OBJECT_ID":"2025-161D","EPOCH":"2026-03-18T11:53:51.464256","MEAN_MOTION":15.30202566,"ECCENTRICITY":0.00013807,"INCLINATION":53.1557,"RA_OF_ASC_NODE":253.6163,"ARG_OF_PERICENTER":89.1781,"MEAN_ANOMALY":270.9377,"EPHEMERIS_TYPE":0,"CLASSIFICATION_TYPE":"U","NORAD_CAT_ID":65018,"ELEMENT_SET_NO":999,"REV_AT_EPOCH":3667,"BSTAR":0.00064115045,"MEAN_MOTION_DOT":0.00018679,"MEAN_MOTION_DDOT":0},{"OBJECT_NAME":"STARLINK-34232","OBJECT_ID":"2025-161E","EPOCH":"2026-03-19T04:48:40.963968","MEAN_MOTION":15.30197924,"ECCENTRICITY":0.00011573,"INCLINATION":53.155,"RA_OF_ASC_NODE":250.1895,"ARG_OF_PERICENTER":103.7852,"MEAN_ANOMALY":256.3277,"EPHEMERIS_TYPE":0,"CLASSIFICATION_TYPE":"U","NORAD_CAT_ID":65019,"ELEMENT_SET_NO":999,"REV_AT_EPOCH":3689,"BSTAR":0.00071708534,"MEAN_MOTION_DOT":0.00020937,"MEAN_MOTION_DDOT":0},{"OBJECT_NAME":"STARLINK-34772","OBJECT_ID":"2025-161F","EPOCH":"2026-03-19T04:19:48.808128","MEAN_MOTION":15.30195095,"ECCENTRICITY":0.00013426,"INCLINATION":53.158,"RA_OF_ASC_NODE":250.0652,"ARG_OF_PERICENTER":85.7845,"MEAN_ANOMALY":274.3309,"EPHEMERIS_TYPE":0,"CLASSIFICATION_TYPE":"U","NORAD_CAT_ID":65020,"ELEMENT_SET_NO":999,"REV_AT_EPOCH":3689,"BSTAR":0.0005557309,"MEAN_MOTION_DOT":0.00016133,"MEAN_MOTION_DDOT":0},{"OBJECT_NAME":"STARLINK-34778","OBJECT_ID":"2025-161G","EPOCH":"2026-03-19T05:02:21.385536","MEAN_MOTION":15.30220201,"ECCENTRICITY":2.999e-5,"INCLINATION":53.1609,"RA_OF_ASC_NODE":250.2524,"ARG_OF_PERICENTER":265.4021,"MEAN_ANOMALY":94.6946,"EPHEMERIS_TYPE":0,"CLASSIFICATION_TYPE":"U","NORAD_CAT_ID":65021,"ELEMENT_SET_NO":999,"REV_AT_EPOCH":3677,"BSTAR":0.00076764464,"MEAN_MOTION_DOT":0.00022459,"MEAN_MOTION_DDOT":0},{"OBJECT_NAME":"STARLINK-34789","OBJECT_ID":"2025-161H","EPOCH":"2026-03-19T04:56:16.656576","MEAN_MOTION":15.30217555,"ECCENTRICITY":4.047e-5,"INCLINATION":53.1608,"RA_OF_ASC_NODE":250.225,"ARG_OF_PERICENTER":77.1661,"MEAN_ANOMALY":282.9385,"EPHEMERIS_TYPE":0,"CLASSIFICATION_TYPE":"U","NORAD_CAT_ID":65022,"ELEMENT_SET_NO":999,"REV_AT_EPOCH":3677,"BSTAR":0.00078429978,"MEAN_MOTION_DOT":0.00022954,"MEAN_MOTION_DDOT":0},{"OBJECT_NAME":"STARLINK-34858","OBJECT_ID":"2025-161J","EPOCH":"2026-03-19T04:42:36.128736","MEAN_MOTION":15.3020647,"ECCENTRICITY":5.426e-5,"INCLINATION":53.1601,"RA_OF_ASC_NODE":250.1638,"ARG_OF_PERICENTER":97.1663,"MEAN_ANOMALY":262.94,"EPHEMERIS_TYPE":0,"CLASSIFICATION_TYPE":"U","NORAD_CAT_ID":65023,"ELEMENT_SET_NO":999,"REV_AT_EPOCH":3677,"BSTAR":0.00053996017,"MEAN_MOTION_DOT":0.0001567,"MEAN_MOTION_DDOT":0},{"OBJECT_NAME":"STARLINK-34773","OBJECT_ID":"2025-161K","EPOCH":"2026-03-18T21:49:55.363584","MEAN_MOTION":15.30214134,"ECCENTRICITY":9.443e-5,"INCLINATION":53.16,"RA_OF_ASC_NODE":251.2191,"ARG_OF_PERICENTER":66.7733,"MEAN_ANOMALY":293.3367,"EPHEMERIS_TYPE":0,"CLASSIFICATION_TYPE":"U","NORAD_CAT_ID":65024,"ELEMENT_SET_NO":999,"REV_AT_EPOCH":3673,"BSTAR":0.00072206675,"MEAN_MOTION_DOT":0.00021096,"MEAN_MOTION_DDOT":0},{"OBJECT_NAME":"STARLINK-34727","OBJECT_ID":"2025-161L","EPOCH":"2026-03-18T12:11:55.673664","MEAN_MOTION":15.30209513,"ECCENTRICITY":4.506e-5,"INCLINATION":53.1527,"RA_OF_ASC_NODE":252.9772,"ARG_OF_PERICENTER":25.5284,"MEAN_ANOMALY":334.5739,"EPHEMERIS_TYPE":0,"CLASSIFICATION_TYPE":"U","NORAD_CAT_ID":65025,"ELEMENT_SET_NO":999,"REV_AT_EPOCH":3670,"BSTAR":0.00085624915,"MEAN_MOTION_DOT":0.00025094,"MEAN_MOTION_DDOT":0},{"OBJECT_NAME":"STARLINK-34804","OBJECT_ID":"2025-161M","EPOCH":"2026-03-18T11:20:25.296000","MEAN_MOTION":15.30206309,"ECCENTRICITY":0.0001284,"INCLINATION":53.1559,"RA_OF_ASC_NODE":253.4694,"ARG_OF_PERICENTER":87.051,"MEAN_ANOMALY":273.0637,"EPHEMERIS_TYPE":0,"CLASSIFICATION_TYPE":"U","NORAD_CAT_ID":65026,"ELEMENT_SET_NO":999,"REV_AT_EPOCH":3668,"BSTAR":0.00072130256,"MEAN_MOTION_DOT":0.00021069,"MEAN_MOTION_DDOT":0},{"OBJECT_NAME":"STARLINK-34655","OBJECT_ID":"2025-161N","EPOCH":"2026-03-18T21:22:43.984704","MEAN_MOTION":15.30212433,"ECCENTRICITY":8.589e-5,"INCLINATION":53.1585,"RA_OF_ASC_NODE":251.8108,"ARG_OF_PERICENTER":73.0976,"MEAN_ANOMALY":287.0119,"EPHEMERIS_TYPE":0,"CLASSIFICATION_TYPE":"U","NORAD_CAT_ID":65027,"ELEMENT_SET_NO":999,"REV_AT_EPOCH":3673,"BSTAR":0.00071890331,"MEAN_MOTION_DOT":0.00021001,"MEAN_MOTION_DDOT":0},{"OBJECT_NAME":"STARLINK-34807","OBJECT_ID":"2025-161P","EPOCH":"2026-03-18T18:20:32.575488","MEAN_MOTION":15.3019359,"ECCENTRICITY":8.715e-5,"INCLINATION":53.1536,"RA_OF_ASC_NODE":251.7315,"ARG_OF_PERICENTER":86.3143,"MEAN_ANOMALY":273.7957,"EPHEMERIS_TYPE":0,"CLASSIFICATION_TYPE":"U","NORAD_CAT_ID":65028,"ELEMENT_SET_NO":999,"REV_AT_EPOCH":3672,"BSTAR":0.00074992343,"MEAN_MOTION_DOT":0.00021913,"MEAN_MOTION_DDOT":0},{"OBJECT_NAME":"STARLINK-34731","OBJECT_ID":"2025-161Q","EPOCH":"2026-03-18T11:15:51.820992","MEAN_MOTION":15.30204473,"ECCENTRICITY":0.00010928,"INCLINATION":53.1589,"RA_OF_ASC_NODE":253.4484,"ARG_OF_PERICENTER":68.893,"MEAN_ANOMALY":291.2187,"EPHEMERIS_TYPE":0,"CLASSIFICATION_TYPE":"U","NORAD_CAT_ID":65029,"ELEMENT_SET_NO":999,"REV_AT_EPOCH":3667,"BSTAR":0.00055448564,"MEAN_MOTION_DOT":0.00016101,"MEAN_MOTION_DDOT":0},{"OBJECT_NAME":"STARLINK-34614","OBJECT_ID":"2025-161R","EPOCH":"2026-03-18T18:08:32.949888","MEAN_MOTION":15.30194706,"ECCENTRICITY":0.00013392,"INCLINATION":53.1568,"RA_OF_ASC_NODE":252.3935,"ARG_OF_PERICENTER":92.0412,"MEAN_ANOMALY":268.0742,"EPHEMERIS_TYPE":0,"CLASSIFICATION_TYPE":"U","NORAD_CAT_ID":65030,"ELEMENT_SET_NO":999,"REV_AT_EPOCH":3671,"BSTAR":0.0010451405,"MEAN_MOTION_DOT":0.00030718,"MEAN_MOTION_DDOT":0},{"OBJECT_NAME":"STARLINK-34677","OBJECT_ID":"2025-161S","EPOCH":"2026-03-18T18:02:28.031712","MEAN_MOTION":15.30207025,"ECCENTRICITY":0.0003051,"INCLINATION":53.158,"RA_OF_ASC_NODE":252.3654,"ARG_OF_PERICENTER":94.2501,"MEAN_ANOMALY":265.8848,"EPHEMERIS_TYPE":0,"CLASSIFICATION_TYPE":"U","NORAD_CAT_ID":65031,"ELEMENT_SET_NO":999,"REV_AT_EPOCH":3561,"BSTAR":0.00095481272,"MEAN_MOTION_DOT":0.00028034,"MEAN_MOTION_DDOT":0},{"OBJECT_NAME":"STARLINK-34656","OBJECT_ID":"2025-161T","EPOCH":"2026-03-18T17:59:25.817568","MEAN_MOTION":15.30209421,"ECCENTRICITY":0.00011162,"INCLINATION":53.1579,"RA_OF_ASC_NODE":252.3527,"ARG_OF_PERICENTER":105.2447,"MEAN_ANOMALY":254.8677,"EPHEMERIS_TYPE":0,"CLASSIFICATION_TYPE":"U","NORAD_CAT_ID":65032,"ELEMENT_SET_NO":999,"REV_AT_EPOCH":3671,"BSTAR":0.00073995966,"MEAN_MOTION_DOT":0.00021626,"MEAN_MOTION_DDOT":0},{"OBJECT_NAME":"STARLINK-34671","OBJECT_ID":"2025-161U","EPOCH":"2026-03-18T21:19:41.653920","MEAN_MOTION":15.30200932,"ECCENTRICITY":0.00012138,"INCLINATION":53.1604,"RA_OF_ASC_NODE":251.8006,"ARG_OF_PERICENTER":86.4057,"MEAN_ANOMALY":273.7083,"EPHEMERIS_TYPE":0,"CLASSIFICATION_TYPE":"U","NORAD_CAT_ID":65033,"ELEMENT_SET_NO":999,"REV_AT_EPOCH":3563,"BSTAR":0.00078550224,"MEAN_MOTION_DOT":0.00022978,"MEAN_MOTION_DDOT":0},{"OBJECT_NAME":"STARLINK-34610","OBJECT_ID":"2025-161V","EPOCH":"2026-03-19T04:38:02.896512","MEAN_MOTION":15.30210952,"ECCENTRICITY":6.19e-6,"INCLINATION":53.1606,"RA_OF_ASC_NODE":250.1419,"ARG_OF_PERICENTER":244.1462,"MEAN_ANOMALY":115.9533,"EPHEMERIS_TYPE":0,"CLASSIFICATION_TYPE":"U","NORAD_CAT_ID":65034,"ELEMENT_SET_NO":999,"REV_AT_EPOCH":3568,"BSTAR":0.00074689445,"MEAN_MOTION_DOT":0.00021835,"MEAN_MOTION_DDOT":0},{"OBJECT_NAME":"STARLINK-34286","OBJECT_ID":"2025-161W","EPOCH":"2026-03-18T11:11:18.949920","MEAN_MOTION":15.30229822,"ECCENTRICITY":0.0001679,"INCLINATION":53.1575,"RA_OF_ASC_NODE":253.4274,"ARG_OF_PERICENTER":79.1917,"MEAN_ANOMALY":280.9273,"EPHEMERIS_TYPE":0,"CLASSIFICATION_TYPE":"U","NORAD_CAT_ID":65035,"ELEMENT_SET_NO":999,"REV_AT_EPOCH":3557,"BSTAR":0.0005853013,"MEAN_MOTION_DOT":0.00017031,"MEAN_MOTION_DDOT":0},{"OBJECT_NAME":"STARLINK-34770","OBJECT_ID":"2025-161X","EPOCH":"2026-03-19T04:53:15.582912","MEAN_MOTION":15.30232966,"ECCENTRICITY":0.00019001,"INCLINATION":53.153,"RA_OF_ASC_NODE":250.2065,"ARG_OF_PERICENTER":108.1708,"MEAN_ANOMALY":251.9499,"EPHEMERIS_TYPE":0,"CLASSIFICATION_TYPE":"U","NORAD_CAT_ID":65036,"ELEMENT_SET_NO":999,"REV_AT_EPOCH":3568,"BSTAR":0.00095625704,"MEAN_MOTION_DOT":0.00028099,"MEAN_MOTION_DDOT":0}]
